{
  "type": "FeatureCollection",
  "features": [
    {
      "type": "Feature",
      "properties": {
        "norad_id": 36744,
        "name": "COMS 1",
        "group": "weather",
        "lat": 3.7844156951972647,
        "lon": -162.51138300436156,
        "alt_km": 35785.288729810716,
        "timestamp": "2025-12-19T22:41:52.021239+00:00",
        "meta_object_name": "COMS 1",
        "meta_object_id": "2010-032A",
        "meta_epoch": "2025-12-19T17:17:45.777408",
        "meta_mean_motion": 1.00272646,
        "meta_eccentricity": 7.08e-05,
        "meta_inclination": 4.3564,
        "meta_ra_of_asc_node": 77.921,
        "meta_arg_of_pericenter": 207.8228,
        "meta_mean_anomaly": 190.4357,
        "meta_ephemeris_type": 0,
        "meta_classification_type": "U",
        "meta_norad_cat_id": 36744,
        "meta_element_set_no": 999,
        "meta_rev_at_epoch": 4929,
        "meta_bstar": 0,
        "meta_mean_motion_dot": -3.23e-06,
        "meta_mean_motion_ddot": 0,
        "tle_line1": "1 36744U 10032A   25353.72066872 -.00000323  00000+0  00000+0 0  9993",
        "tle_line2": "2 36744   4.3564  77.9210 0000708 207.8228 190.4357  1.00272646 49299"
      },
      "geometry": {
        "type": "Point",
        "coordinates": [
          -162.51138300436156,
          3.7844156951972647
        ]
      }
    },
    {
      "type": "Feature",
      "properties": {
        "norad_id": 37214,
        "name": "FENGYUN 3B",
        "group": "weather",
        "lat": -3.674771215792069,
        "lon": 34.55603800943851,
        "alt_km": 831.5667743577396,
        "timestamp": "2025-12-19T22:41:52.021252+00:00",
        "meta_object_name": "FENGYUN 3B",
        "meta_object_id": "2010-059A",
        "meta_epoch": "2025-12-19T18:15:09.488736",
        "meta_mean_motion": 14.14792078,
        "meta_eccentricity": 0.0021719,
        "meta_inclination": 98.9902,
        "meta_ra_of_asc_node": 33.787,
        "meta_arg_of_pericenter": 337.7217,
        "meta_mean_anomaly": 155.7744,
        "meta_ephemeris_type": 0,
        "meta_classification_type": "U",
        "meta_norad_cat_id": 37214,
        "meta_element_set_no": 999,
        "meta_rev_at_epoch": 78205,
        "meta_bstar": 7.7657e-05,
        "meta_mean_motion_dot": 1.04e-06,
        "meta_mean_motion_ddot": 0,
        "tle_line1": "1 37214U 10059A   25353.76052649  .00000104  00000+0  77657-4 0  9999",
        "tle_line2": "2 37214  98.9902  33.7870 0021719 337.7217 155.7744 14.14792078782052"
      },
      "geometry": {
        "type": "Point",
        "coordinates": [
          34.55603800943851,
          -3.674771215792069
        ]
      }
    },
    {
      "type": "Feature",
      "properties": {
        "norad_id": 37849,
        "name": "SUOMI NPP",
        "group": "weather",
        "lat": -40.155402700178996,
        "lon": -61.28690847617685,
        "alt_km": 834.8900732219035,
        "timestamp": "2025-12-19T22:41:52.021263+00:00",
        "meta_object_name": "SUOMI NPP",
        "meta_object_id": "2011-061A",
        "meta_epoch": "2025-12-17T23:31:21.474624",
        "meta_mean_motion": 14.19515682,
        "meta_eccentricity": 0.00023932,
        "meta_inclination": 98.7779,
        "meta_ra_of_asc_node": 289.2746,
        "meta_arg_of_pericenter": 111.1248,
        "meta_mean_anomaly": 249.0184,
        "meta_ephemeris_type": 0,
        "meta_classification_type": "U",
        "meta_norad_cat_id": 37849,
        "meta_element_set_no": 999,
        "meta_rev_at_epoch": 73273,
        "meta_bstar": 4.8615036e-05,
        "meta_mean_motion_dot": 5.8e-07,
        "meta_mean_motion_ddot": 0,
        "tle_line1": "1 37849U 11061A   25351.98010966  .00000058  00000+0  48615-4 0  9995",
        "tle_line2": "2 37849  98.7779 289.2746 0002393 111.1248 249.0184 14.19515682732735"
      },
      "geometry": {
        "type": "Point",
        "coordinates": [
          -61.28690847617685,
          -40.155402700178996
        ]
      }
    },
    {
      "type": "Feature",
      "properties": {
        "norad_id": 38552,
        "name": "METEOSAT-10 (MSG-3)",
        "group": "weather",
        "lat": 0.601736194612009,
        "lon": 69.51482011643166,
        "alt_km": 35785.05882273764,
        "timestamp": "2025-12-19T22:41:52.021276+00:00",
        "meta_object_name": "METEOSAT-10 (MSG-3)",
        "meta_object_id": "2012-035B",
        "meta_epoch": "2025-12-19T08:07:49.924128",
        "meta_mean_motion": 1.00276524,
        "meta_eccentricity": 6.93e-05,
        "meta_inclination": 4.2433,
        "meta_ra_of_asc_node": 61.706,
        "meta_arg_of_pericenter": 270.066,
        "meta_mean_anomaly": 238.6463,
        "meta_ephemeris_type": 0,
        "meta_classification_type": "U",
        "meta_norad_cat_id": 38552,
        "meta_element_set_no": 999,
        "meta_rev_at_epoch": 4905,
        "meta_bstar": 0,
        "meta_mean_motion_dot": 1.7e-07,
        "meta_mean_motion_ddot": 0,
        "tle_line1": "1 38552U 12035B   25353.33877227  .00000017  00000+0  00000+0 0  9997",
        "tle_line2": "2 38552   4.2433  61.7060 0000693 270.0660 238.6463  1.00276524 49057"
      },
      "geometry": {
        "type": "Point",
        "coordinates": [
          69.51482011643166,
          0.601736194612009
        ]
      }
    },
    {
      "type": "Feature",
      "properties": {
        "norad_id": 38771,
        "name": "METOP-B",
        "group": "weather",
        "lat": -40.19942288862053,
        "lon": -143.63407660648124,
        "alt_km": 827.1337909634267,
        "timestamp": "2025-12-19T22:41:52.021287+00:00",
        "meta_object_name": "METOP-B",
        "meta_object_id": "2012-049A",
        "meta_epoch": "2025-12-19T16:35:41.381952",
        "meta_mean_motion": 14.21410903,
        "meta_eccentricity": 0.0003161,
        "meta_inclination": 98.6789,
        "meta_ra_of_asc_node": 43.5321,
        "meta_arg_of_pericenter": 129.5342,
        "meta_mean_anomaly": 230.6115,
        "meta_ephemeris_type": 0,
        "meta_classification_type": "U",
        "meta_norad_cat_id": 38771,
        "meta_element_set_no": 999,
        "meta_rev_at_epoch": 68776,
        "meta_bstar": 6.9504e-05,
        "meta_mean_motion_dot": 1.08e-06,
        "meta_mean_motion_ddot": 0,
        "tle_line1": "1 38771U 12049A   25353.69145118  .00000108  00000+0  69504-4 0  9991",
        "tle_line2": "2 38771  98.6789  43.5321 0003161 129.5342 230.6115 14.21410903687767"
      },
      "geometry": {
        "type": "Point",
        "coordinates": [
          -143.63407660648124,
          -40.19942288862053
        ]
      }
    },
    {
      "type": "Feature",
      "properties": {
        "norad_id": 39216,
        "name": "INSAT-3D",
        "group": "weather",
        "lat": 1.3279704861542707,
        "lon": -161.31332361303217,
        "alt_km": 35784.24971500879,
        "timestamp": "2025-12-19T22:41:52.021299+00:00",
        "meta_object_name": "INSAT-3D",
        "meta_object_id": "2013-038B",
        "meta_epoch": "2025-12-17T17:21:59.330304",
        "meta_mean_motion": 1.00267779,
        "meta_eccentricity": 0.00012009,
        "meta_inclination": 1.4572,
        "meta_ra_of_asc_node": 84.9421,
        "meta_arg_of_pericenter": 166.0293,
        "meta_mean_anomaly": 225.6028,
        "meta_ephemeris_type": 0,
        "meta_classification_type": "U",
        "meta_norad_cat_id": 39216,
        "meta_element_set_no": 999,
        "meta_rev_at_epoch": 4526,
        "meta_bstar": 0,
        "meta_mean_motion_dot": -3.16e-06,
        "meta_mean_motion_ddot": 0,
        "tle_line1": "1 39216U 13038B   25351.72360336 -.00000316  00000+0  00000+0 0  9991",
        "tle_line2": "2 39216   1.4572  84.9421 0001200 166.0293 225.6028  1.00267779 45261"
      },
      "geometry": {
        "type": "Point",
        "coordinates": [
          -161.31332361303217,
          1.3279704861542707
        ]
      }
    },
    {
      "type": "Feature",
      "properties": {
        "norad_id": 39260,
        "name": "FENGYUN 3C",
        "group": "weather",
        "lat": -39.93798235995915,
        "lon": -21.55357598268273,
        "alt_km": 855.032702985367,
        "timestamp": "2025-12-19T22:41:52.021311+00:00",
        "meta_object_name": "FENGYUN 3C",
        "meta_object_id": "2013-052A",
        "meta_epoch": "2025-12-19T17:48:01.416384",
        "meta_mean_motion": 14.1569839,
        "meta_eccentricity": 0.0014677,
        "meta_inclination": 98.477,
        "meta_ra_of_asc_node": 331.0794,
        "meta_arg_of_pericenter": 175.6238,
        "meta_mean_anomaly": 184.5067,
        "meta_ephemeris_type": 0,
        "meta_classification_type": "U",
        "meta_norad_cat_id": 39260,
        "meta_element_set_no": 999,
        "meta_rev_at_epoch": 63317,
        "meta_bstar": 5.1105e-05,
        "meta_mean_motion_dot": 5.9e-07,
        "meta_mean_motion_ddot": 0,
        "tle_line1": "1 39260U 13052A   25353.74168306  .00000059  00000+0  51105-4 0  9993",
        "tle_line2": "2 39260  98.4770 331.0794 0014677 175.6238 184.5067 14.15698390633178"
      },
      "geometry": {
        "type": "Point",
        "coordinates": [
          -21.55357598268273,
          -39.93798235995915
        ]
      }
    }
  ]
}